H1 CPF  1  HTS 2022 11 20 12  8241 larets           NONE
H2  0304206 5557    27944 2022 11 20  0  0  0 2022 11 25  0  0  0   180 1 1  0 0 0
H5  0.0560 
H9 
10 0 59907  20520.00000  0    3344623.450   -2989903.816   -5473510.326
10 0 59907  20700.00000  0    3784441.090   -3884791.754   -4546189.921
10 0 59907  20880.00000  0    4065826.309   -4648864.837   -3453517.735
10 0 59907  21060.00000  0    4182254.528   -5250038.633   -2235052.599
10 0 59907  21240.00000  0    4133910.950   -5661960.313    -935059.687
10 0 59907  21420.00000  0    3927564.414   -5865192.521     399081.129
10 0 59907  21600.00000  0    3576165.438   -5848140.883    1718614.592
10 0 59907  21780.00000  0    3098183.831   -5607670.925    2975226.277
10 0 59907  21960.00000  0    2516713.387   -5149374.055    4122851.639
10 0 59907  22140.00000  0    1858394.627   -4487472.931    5119395.383
10 0 59907  22320.00000  0    1152211.866   -3644369.235    5928293.611
10 0 59907  22500.00000  0     428221.210   -2649854.865    6519857.261
10 0 59907  22680.00000  0    -283730.400   -1540026.474    6872344.281
10 0 59907  22860.00000  0    -955234.412    -355956.401    6972739.431
10 0 59907  23040.00000  0   -1560455.518     857838.326    6817229.882
10 0 59907  23220.00000  0   -2077133.420    2055077.986    6411358.179
10 0 59907  23400.00000  0   -2487416.124    3189494.869    5769849.017
10 0 59907  23580.00000  0   -2778495.782    4216643.531    4916111.464
10 0 59907  23760.00000  0   -2943026.081    5095683.676    3881422.013
10 0 59907  23940.00000  0   -2979300.942    5791063.755    2703797.794
10 0 59907  24120.00000  0   -2891181.249    6274022.101    1426589.674
10 0 59907  24300.00000  0   -2687771.715    6523828.130      96849.634
10 0 59907  24480.00000  0   -2382862.078    6528699.930   -1236462.043
10 0 59907  24660.00000  0   -1994162.435    6286343.358   -2524355.909
10 0 59907  24840.00000  0   -1542368.670    5804069.360   -3719681.591
10 0 59907  25020.00000  0   -1050120.191    5098504.398   -4778879.972
10 0 59907  25200.00000  0    -540912.100    4194928.098   -5663559.365
10 0 59907  25380.00000  0     -38013.219    3126282.321   -6341841.386
10 0 59907  25560.00000  0     436561.276    1931901.074   -6789438.672
10 0 59907  25740.00000  0     862976.169     656027.661   -6990438.737
10 0 59907  25920.00000  0    1224370.651    -653820.355   -6937797.115
10 0 59907  26100.00000  0    1507497.680   -1948589.552   -6633537.110
10 0 59907  26280.00000  0    1703191.129   -3179476.680   -6088662.251
10 0 59907  26460.00000  0    1806653.626   -4299721.965   -5322794.509
10 0 59907  26640.00000  0    1817554.890   -5266366.871   -4363527.659
10 0 59907  26820.00000  0    1739937.627   -6041906.326   -3245502.554
10 0 59907  27000.00000  0    1581930.584   -6595782.509   -2009222.893
10 0 59907  27180.00000  0    1355277.871   -6905648.146    -699629.920
10 0 59907  27360.00000  0    1074703.079   -6958332.326     635519.202
10 0 59907  27540.00000  0     757135.966   -6750449.800    1947409.028
10 0 59907  27720.00000  0     420839.319   -6288615.716    3187987.187
10 0 59907  27900.00000  0      84479.747   -5589241.620    4311768.040
10 0 59907  28080.00000  0    -233810.853   -4677927.115    5277528.803
10 0 59907  28260.00000  0    -517330.930   -3588483.940    6049834.915
10 0 59907  28440.00000  0    -751617.955   -2361635.757    6600338.024
10 0 59907  28620.00000  0    -925134.546   -1043457.639    6908796.542
10 0 59907  28800.00000  0   -1029804.106     316372.126    6963803.280
10 0 59907  28980.00000  0   -1061376.097    1666456.751    6763205.329
10 0 59907  29160.00000  0   -1019602.692    2955635.237    6314199.560
10 0 59907  29340.00000  0    -908221.638    4134940.159    5633101.610
10 0 59907  29520.00000  0    -734746.335    5159493.444    4744788.832
10 0 59907  29700.00000  0    -510069.483    5990271.911    3681824.310
10 0 59907  29880.00000  0    -247895.394    6595664.529    2483278.638
10 0 59907  30060.00000  0      35972.337    6952757.317    1193283.833
10 0 59907  30240.00000  0     324461.599    7048261.343    -140640.992
10 0 59907  30420.00000  0     600133.215    6879032.962   -1469404.544
10 0 59907  30600.00000  0     846100.304    6452157.348   -2744221.559
10 0 59907  30780.00000  0    1046912.261    5784596.450   -3918457.754
10 0 59907  30960.00000  0    1189363.630    4902432.827   -4949360.686
10 0 59907  31140.00000  0    1263187.156    3839755.318   -5799603.503
10 0 59907  31320.00000  0    1261597.702    2637257.106   -6438584.903
10 0 59907  31500.00000  0    1181665.145    1340620.540   -6843453.101
10 0 59907  31680.00000  0    1024506.639      -1234.387   -6999837.450
10 0 59907  31860.00000  0     795295.093   -1337976.513   -6902289.598
10 0 59907  32040.00000  0     503084.298   -2619707.152   -6554430.491
10 0 59907  32220.00000  0     160460.244   -3798767.420   -5968817.898
10 0 59907  32400.00000  0    -216974.913   -4831475.016   -5166533.827
10 0 59907  32580.00000  0    -611268.323   -5679732.782   -4176488.219
10 0 59907  32760.00000  0   -1002912.768   -6312458.904   -3034449.811
10 0 59907  32940.00000  0   -1371744.487   -6706779.066   -1781815.713
10 0 59907  33120.00000  0   -1697904.401   -6848924.428    -464149.149
10 0 59907  33300.00000  0   -1962817.033   -6734781.225     870472.547
10 0 59907  33480.00000  0   -2150138.736   -6370052.304    2173233.289
10 0 59907  33660.00000  0   -2246624.624   -5770014.664    3396402.050
10 0 59907  33840.00000  0   -2242864.475   -4958878.950    4495122.183
10 0 59907  34020.00000  0   -2133848.937   -3968787.084    5429083.634
10 0 59907  34200.00000  0   -1919341.143   -2838501.532    6164013.840
10 0 59907  34380.00000  0   -1604031.890   -1611846.523    6672929.109
10 0 59907  34560.00000  0   -1197472.625    -335980.938    6937108.189
10 0 59907  34740.00000  0    -713794.797     940433.544    6946764.636
10 0 59907  34920.00000  0    -171221.728    2169097.747    6701406.368
10 0 59907  35100.00000  0     408618.056    3303916.479    6209874.296
10 0 59907  35280.00000  0    1001550.607    4302751.209    5490052.444
10 0 59907  35460.00000  0    1581859.273    5129026.039    4568253.829
10 0 59907  35640.00000  0    2123395.520    5753125.237    3478288.422
10 0 59907  35820.00000  0    2600753.239    6153522.160    2260237.940
10 0 59907  36000.00000  0    2990450.454    6317587.755     958960.496
10 0 59907  36180.00000  0    3272053.353    6242017.009    -377615.115
10 0 59907  36360.00000  0    3429181.935    5932853.888   -1700320.402
10 0 59907  36540.00000  0    3450347.317    5405117.186   -2960621.578
10 0 59907  36720.00000  0    3329574.937    4682049.913   -4112452.169
10 0 59907  36900.00000  0    3066780.563    3794036.663   -5113916.596
10 0 59907  37080.00000  0    2667888.551    2777262.373   -5928792.536
10 0 59907  37260.00000  0    2144697.260    1672184.850   -6527784.665
10 0 59907  37440.00000  0    1514504.509     521897.325   -6889496.386
10 0 59907  37620.00000  0     799517.869    -629545.710   -7001109.466
10 0 59907  37800.00000  0      26068.252   -1738784.814   -6858774.185
10 0 59907  37980.00000  0    -776344.004   -2764741.880   -6467706.729
10 0 59907  38160.00000  0   -1576144.313   -3670098.418   -5842008.363
10 0 59907  38340.00000  0   -2340891.330   -4422629.272   -5004200.193
10 0 59907  38520.00000  0   -3038562.897   -4996353.434   -3984482.157
10 0 59907  38700.00000  0   -3638879.906   -5372461.381   -2819715.119
10 0 59907  38880.00000  0   -4114611.823   -5539975.072   -1552146.693
10 0 59907  39060.00000  0   -4442807.528   -5496107.955    -227911.935
10 0 59907  39240.00000  0   -4605886.074   -5246297.672    1104645.009
10 0 59907  39420.00000  0   -4592526.750   -4803899.776    2396762.506
10 0 59907  39600.00000  0   -4398306.271   -4189548.747    3601086.752
10 0 59907  39780.00000  0   -4026048.484   -3430220.199    4673445.308
10 0 59907  39960.00000  0   -3485867.437   -2558041.804    5574493.816
10 0 59907  40140.00000  0   -2794903.490   -1608916.796    6271163.856
10 0 59907  40320.00000  0   -1976769.432    -621030.404    6737869.989
10 0 59907  40500.00000  0   -1060724.121     366704.372    6957435.612
10 0 59907  40680.00000  0     -80612.102    1316187.530    6921705.676
10 0 59907  40860.00000  0     926390.137    2191608.058    6631850.131
10 0 59907  41040.00000  0    1921189.154    2960809.110    6098342.810
10 0 59907  41220.00000  0    2864300.784    3596490.749    5340614.278
10 0 59907  41400.00000  0    3717438.614    4077214.508    4386382.955
10 0 59907  41580.00000  0    4445100.844    4388164.924    3270667.379
10 0 59907  41760.00000  0    5016091.343    4521638.713    2034510.200
10 0 59907  41940.00000  0    5404896.849    4477227.925     723440.515
10 0 59907  42120.00000  0    5592845.889    4261684.892    -614255.560
10 0 59907  42300.00000  0    5568981.745    3888471.880   -1929384.916
10 0 59907  42480.00000  0    5330603.351    3377021.992   -3173721.983
10 0 59907  42660.00000  0    4883452.352    2751757.325   -4301820.890
10 0 59907  42840.00000  0    4241544.229    2040924.024   -5272688.438
10 0 59907  43020.00000  0    3426659.863    1275304.035   -6051246.180
10 0 59907  43200.00000  0    2467537.473     486878.115   -6609534.240
10 0 59907  43380.00000  0    1398809.075    -292498.852   -6927632.034
10 0 59907  43560.00000  0     259734.225   -1032359.063   -6994288.024
10 0 59907  43740.00000  0    -907230.406   -1704779.836   -6807257.569
10 0 59907  43920.00000  0   -2057977.214   -2285402.319   -6373351.951
10 0 59907  44100.00000  0   -3148370.545   -2754289.749   -5708204.759
10 0 59907  44280.00000  0   -4135900.742   -3096601.608   -4835759.111
10 0 59907  44460.00000  0   -4981328.452   -3303067.720   -3787477.398
10 0 59907  44640.00000  0   -5650255.966   -3370239.235   -2601276.161
10 0 59907  44820.00000  0   -6114561.059   -3300503.359   -1320208.842
99
